GALAXY 11 (G-11)        
1 26038U 99071A   25026.32185902  .00000081  00000+0  00000+0 0  9997
2 26038   5.4510  76.6814 0006881 283.8044 110.5886  0.99028908 91992
INTELSAT 9 (IS-9)       
1 26451U 00043A   25025.64146694 -.00000001  00000+0  00000+0 0  9999
2 26451   9.2699  53.7641 0002788 262.3901 106.2143  1.00273435 39058
INTELSAT 1R (IS-1R)     
1 26608U 00072A   25026.32888066 -.00000055  00000+0  00000+0 0  9996
2 26608   6.8102  70.3174 0009984 246.3276 308.6067  0.98973341 36219
INTELSAT 10 (IS-10)     
1 26766U 01019A   25026.12350087  .00000004  00000+0  00000+0 0  9991
2 26766   7.8579  64.4344 0003858 242.4146 289.3592  1.00271798 40532
INTELSAT 901 (IS-901)   
1 26824U 01024A   25025.96207692 -.00000184  00000+0  00000+0 0  9996
2 26824   0.0196 102.1067 0002420 250.1545  92.0856  1.00272544 17897
INTELSAT 902 (IS-902)   
1 26900U 01039A   25026.52914027 -.00000270  00000+0  00000+0 0  9993
2 26900   4.8317  77.9762 0004665 231.2827 317.1617  1.00270232 85619
INTELSAT 904 (IS-904)   
1 27380U 02007A   25026.49285421 -.00000202  00000+0  00000+0 0  9992
2 27380   5.6447  75.2502 0003050 250.2468 308.4409  1.00271474 46682
DIRECTV 5 (TEMPO 1)     
1 27426U 02023A   25026.51723763 -.00000043  00000+0  00000+0 0  9993
2 27426   3.5764  81.6864 0003293 239.4740 240.9647  1.00271381 83047
INTELSAT 905 (IS-905)   
1 27438U 02027A   25026.49285421 -.00000173  00000+0  00000+0 0  9995
2 27438   5.4716  75.8867 0002600 241.8800 321.1785  1.00270892 46287
GALAXY 3C (G-3C)        
1 27445U 02030A   25026.44886265 -.00000137  00000+0  00000+0 0  9995
2 27445   2.4296  84.5832 0002680  53.9089  54.2285  1.00271439 41410
INTELSAT 906 (IS-906)   
1 27513U 02041A   25026.19456913  .00000027  00000+0  00000+0 0  9995
2 27513   4.5091  79.1901 0005523 204.5307 336.1629  1.00271812 81946
GALAXY 23 (G-23)        
1 27854U 03034A   25026.51506562  .00000028  00000+0  00000+0 0  9999
2 27854   1.8851  86.1268 0003049 233.8773 230.5542  1.00271425 78661
GALAXY 13 (HORIZONS-1)  
1 27954U 03044A   25026.58074729  .00000150  00000+0  00000+0 0  9999
2 27954   0.1066  96.7237 0002007 235.5764 212.8411  1.00270625 41497
INTELSAT 10-02          
1 28358U 04022A   25025.96728975  .00000008  00000+0  00000+0 0  9997
2 28358   0.0407 251.6962 0000916 130.7140  90.3351  1.00272825 75473
XM-3 (RHYTHM)           
1 28626U 05008A   25025.53730039 -.00000186  00000+0  00000+0 0  9995
2 28626   0.0168  96.7772 0004226 130.5169   6.0795  1.00268645 72972
DIRECTV 8               
1 28659U 05019A   25026.51550001  .00000019  00000+0  00000+0 0  9995
2 28659   0.0190  83.4506 0002896 235.5398 233.5735  1.00271379 71992
GALAXY 28 (G-28)        
1 28702U 05022A   25026.52140789 -.00000170  00000+0  00000+0 0  9996
2 28702   1.9900  85.3029 0006583 205.3433 294.0721  1.00270516 46905
GALAXY 14 (G-14)        
1 28790U 05030A   25026.43965331  .00000048  00000+0  00000+0 0  9993
2 28790   3.7113  81.2367 0003520 292.9307 129.2675  0.98913435 71217
SPACEWAY 2              
1 28903U 05046B   25026.52792394 -.00000174  00000+0  00000+0 0  9994
2 28903   4.1690  77.6221 0001724  49.9388 132.5659  0.99062845 46255
GALAXY 16 (G-16)        
1 29236U 06023A   25026.51940964 -.00000109  00000+0  00000+0 0  9995
2 29236   0.0572 240.0838 0002890  80.9113 253.0111  1.00270222 67893
DIRECTV 9S              
1 29494U 06043A   25026.51897524 -.00000097  00000+0  00000+0 0  9992
2 29494   1.1083  87.1954 0002852 226.1023 258.3699  1.00271777 46307
GALAXY 17 (G-17)        
1 31307U 07016B   25026.52218983 -.00000190  00000+0  00000+0 0  9990
2 31307   1.6837  86.4740 0005370 205.4766 297.0689  1.00271204 64722
DIRECTV 10              
1 31862U 07032A   25026.30438035 -.00000084  00000+0  00000+0 0  9994
2 31862   0.0097 302.9960 0000576  33.6113 155.9952  1.00267416 40515
INTELSAT 11 (IS-11)     
1 32253U 07044B   25026.45911456 -.00000254  00000+0  00000+0 0  9990
2 32253   2.2423  85.0206 0004000 236.1419 287.0926  1.00271232 63417
HORIZONS-2              
1 32388U 07063B   25026.52444872 -.00000237  00000+0  00000+0 0  9992
2 32388   1.2901  87.0371 0001955 239.4595 274.5464  1.00270381 62734
DIRECTV 11              
1 32729U 08013A   25025.51919014 -.00000106  00000+0  00000+0 0  9995
2 32729   0.0097 310.5829 0000602 289.3237 332.8561  1.00272228 61842
GALAXY 18 (G-18)        
1 32951U 08024A   25026.51716206  .00000043  00000+0  00000+0 0  9992
2 32951   0.0280  74.7979 0002921 244.6477 229.7760  1.00270493 40770
INTELSAT 25 (IS-25)     
1 33153U 08034A   25026.20813329 -.00000208  00000+0  00000+0 0  9992
2 33153   1.3960  86.6965 0002956 232.8776 209.5687  1.00269890 60618
GALAXY 19 (G-19)        
1 33376U 08045A   25026.45882655 -.00000121  00000+0  00000+0 0  9990
2 33376   0.0568 258.7137 0002524  52.8556 242.5830  1.00270049 59821
FM-5                    
1 35493U 09034A   25026.23591049 -.00000182  00000+0  00000+0 0  9998
2 35493   0.0114 346.9233 0002133 182.4584 315.1623  1.00271345 41563
INTELSAT 14 (IS-14)     
1 36097U 09064A   25026.50396556 -.00000256  00000+0  00000+0 0  9990
2 36097   0.0159  67.1435 0002282 248.0896 307.2310  1.00271680 55527
INTELSAT 15 (IS-15)     
1 36106U 09067A   25026.55598635 -.00000168  00000+0  00000+0 0  9993
2 36106   0.0255  72.6158 0002164 250.9224  87.8541  1.00269736 36147
DIRECTV 12              
1 36131U 09075A   25026.36854885 -.00000086  00000+0  00000+0 0  9990
2 36131   0.0051 308.7087 0000558  71.0357 136.1169  1.00272102 41474
INTELSAT 16 (IS-16)     
1 36397U 10006A   25026.52392743 -.00000227  00000+0  00000+0 0  9995
2 36397   0.0138  52.1984 0001837 260.0216 286.2434  1.00271554 54572
XM-5                    
1 37185U 10053A   25025.73022286 -.00000004  00000+0  00000+0 0  9990
2 37185   0.0250  66.2093 0000655  95.5849 111.1718  1.00270215 52358
INTELSAT 17 (IS-17)     
1 37238U 10065B   25026.44076983  .00000016  00000+0  00000+0 0  9996
2 37238   0.0113  80.3864 0002623 239.8872  30.3500  1.00271385 48157
INTELSAT 28 (IS-28)     
1 37392U 11016A   25026.47618873  .00000035  00000+0  00000+0 0  9998
2 37392   0.4918  89.6798 0003991 215.2818 358.4688  1.00141987 48201
INTELSAT 18 (IS-18)     
1 37834U 11056A   25026.51090997  .00000070  00000+0  00000+0 0  9998
2 37834   0.0261  74.5288 0001298 259.8456 155.6045  1.00271205 48735
INTELSAT 22 (IS-22)     
1 38098U 12011A   25026.44076983 -.00000041  00000+0  00000+0 0  9993
2 38098   0.0116  45.3105 0001915 269.4160  41.9810  1.00271098  2104
INTELSAT 19 (IS-19)     
1 38356U 12030A   25026.31797794 -.00000039  00000+0  00000+0 0  9994
2 38356   0.0154  68.6498 0003045 246.4470  91.2302  1.00272441 45352
INTELSAT 20 (IS-20)     
1 38740U 12043A   25026.05260639 -.00000006  00000+0  00000+0 0  9993
2 38740   0.0198 106.8066 0003054  66.0481  40.1494  1.00270870 45664
INTELSAT 21 (IS-21)     
1 38749U 12045A   25026.52757641 -.00000268  00000+0  00000+0 0  9990
2 38749   0.0108 334.4753 0001556 332.6624 310.8455  1.00270682 45443
INTELSAT 23 (IS-23)     
1 38867U 12057A   25026.38382490 -.00000267  00000+0  00000+0 0  9993
2 38867   0.0466 226.9475 0000325 206.0364 138.1300  1.00269036 44861
FM-6                    
1 39360U 13058A   25025.94444019  .00000002  00000+0  00000+0 0  9997
2 39360   0.0057 337.7944 0000492 233.5697 137.9315  1.00270895 40973
INTELSAT 30 (IS-30)     
1 40271U 14062A   25023.44807477 -.00000124  00000+0  00000+0 0  9996
2 40271   0.0100  43.2886 0001545  83.3962  62.5665  1.00236074  1671
DIRECTV 14              
1 40333U 14078B   25026.24146785 -.00000107  00000+0  00000+0 0  9992
2 40333   0.0163 347.3105 0000306 160.3359 325.8214  1.00270656 36971
DIRECTV 15              
1 40663U 15026A   25026.37536174 -.00000085  00000+0  00000+0 0  9996
2 40663   0.0206  85.8593 0000506  80.2855 352.0200  1.00273375 35385
SKY MEXICO-1            
1 40664U 15026B   25026.52340615 -.00000217  00000+0  00000+0 0  9994
2 40664   0.0223   8.2859 0002222 317.9701 269.4464  1.00271421 35378
INTELSAT 34 (IS-34)     
1 40874U 15039A   25026.21924205 -.00000267  00000+0  00000+0 0  9995
2 40874   0.0278  73.4379 0000276 100.4783 335.2830  1.00270407 34544
INTELSAT 31 (IS-31)     
1 41581U 16035A   25023.44807477 -.00000129  00000+0  00000+0 0  9998
2 41581   0.0126 104.9209 0001970  63.8023  20.5272  1.00270002 31570
INTELSAT 36 (IS-36)     
1 41747U 16053A   25023.48048122 -.00000003  00000+0  00000+0 0  9991
2 41747   0.0109  41.4109 0001411 295.3622  27.7409  1.00272111 30838
INTELSAT 32E (IS-32E)   
1 41945U 17007B   25026.03036498 -.00000250  00000+0  00000+0 0  9992
2 41945   0.0147  71.2631 0000557  59.7524 322.2966  1.00272341 29142
INTELSAT 35E (IS-35E)   
1 42818U 17041A   25026.49841137 -.00000221  00000+0  00000+0 0  9992
2 42818   0.0151  78.9377 0002190 240.8439 311.1793  1.00271621 27739
INTELSAT 37E (IS-37E)   
1 42950U 17059A   25026.48730005 -.00000124  00000+0  00000+0 0  9990
2 42950   0.0156  71.8213 0002447 225.5215 346.0957  1.00271328 26988
AZERSPACE 2 (IS-38)     
1 43632U 18074A   25025.88938435  .00000155  00000+0  00000+0 0  9999
2 43632   0.0166  59.2636 0001943 280.1915 151.2488  1.00271587 23361
HORIZONS-3E             
1 43633U 18074B   25025.85819782 -.00000013  00000+0  00000+0 0  9994
2 43633   0.0449 241.9639 0000994  42.9371 318.4032  1.00270754 23259
AT&T T-16               
1 44333U 19034A   25026.36299168 -.00000098  00000+0  00000+0 0  9999
2 44333   0.0181  61.4047 0001441  87.9811   6.3196  1.00272726 20559
INTELSAT 39 (IS-39)     
1 44476U 19049B   25026.55138168  .00000050  00000+0  00000+0 0  9993
2 44476   0.0262  72.7115 0000943  63.4862 250.3399  1.00269736 20046
GALAXY 30 (G-30)        
1 46114U 20056C   25026.51716206  .00000054  00000+0  00000+0 0  9999
2 46114   0.0295  75.0124 0001910 247.2664 224.9640  1.00272236 16215
GALAXY 33 (G-33)        
1 54026U 22128A   25026.47549272  .00000096  00000+0  00000+0 0  9990
2 54026   0.0172  48.6734 0001776 266.8430 208.6540  1.00271785  8667
GALAXY 34 (G-34)        
1 54027U 22128B   25026.40758920  .00000077  00000+0  00000+0 0  9995
2 54027   0.0177  65.6327 0001813 240.2819 197.7199  1.00269984  8834
GALAXY 31 (G-31)        
1 54243U 22153A   25026.46993833  .00000031  00000+0  00000+0 0  9993
2 54243   0.0276  88.4485 0001245 234.6713 211.0671  1.00270719  2052
GALAXY 32 (G-32)        
1 54244U 22153B   25026.02089501 -.00000156  00000+0  00000+0 0  9993
2 54244   0.0115  65.0321 0002542 275.5310  61.5079  1.00271692  8050
GALAXY 35 (G-35)        
1 54741U 22170A   25026.36299168 -.00000144  00000+0  00000+0 0  9990
2 54741   0.0282  83.7318 0001818 231.0253 208.7183  1.00269705  7814
GALAXY 36 (G-36)        
1 54742U 22170B   25025.59269104 -.00000166  00000+0  00000+0 0  9996
2 54742   0.0186 100.2807 0001740 311.8730 197.3451  1.00271775  7683
GALAXY 37 (G-37)        
1 57493U 23112A   25026.52271603  .00000065  00000+0  00000+0 0  9997
2 57493   0.0065  35.6579 0001774 276.2145 235.3481  1.00270988  5468
